[{"OBJECT_NAME":"COSMOS 1408 DEB","OBJECT_ID":"1982-092RU","EPOCH":"2026-04-26T19:40:15.847104","MEAN_MOTION":15.47249185,"ECCENTRICITY":0.0016932,"INCLINATION":82.5602,"RA_OF_ASC_NODE":279.8787,"ARG_OF_PERICENTER":83.4036,"MEAN_ANOMALY":276.9141,"EPHEMERIS_TYPE":0,"CLASSIFICATION_TYPE":"U","NORAD_CAT_ID":50032,"ELEMENT_SET_NO":999,"REV_AT_EPOCH":24691,"BSTAR":0.00010656,"MEAN_MOTION_DOT":5.496e-5,"MEAN_MOTION_DDOT":0},{"OBJECT_NAME":"COSMOS 1408 DEB","OBJECT_ID":"1982-092SW","EPOCH":"2026-04-26T12:27:43.065216","MEAN_MOTION":15.75785107,"ECCENTRICITY":0.00105758,"INCLINATION":82.6062,"RA_OF_ASC_NODE":287.0757,"ARG_OF_PERICENTER":310.702,"MEAN_ANOMALY":49.3326,"EPHEMERIS_TYPE":0,"CLASSIFICATION_TYPE":"U","NORAD_CAT_ID":50058,"ELEMENT_SET_NO":999,"REV_AT_EPOCH":24918,"BSTAR":0.00035397154,"MEAN_MOTION_DOT":0.00054737,"MEAN_MOTION_DDOT":0},{"OBJECT_NAME":"COSMOS 1408 DEB","OBJECT_ID":"1982-092ADS","EPOCH":"2026-04-26T07:43:05.818368","MEAN_MOTION":15.51719079,"ECCENTRICITY":0.00919253,"INCLINATION":82.1877,"RA_OF_ASC_NODE":73.6855,"ARG_OF_PERICENTER":89.0528,"MEAN_ANOMALY":272.1254,"EPHEMERIS_TYPE":0,"CLASSIFICATION_TYPE":"U","NORAD_CAT_ID":50404,"ELEMENT_SET_NO":999,"REV_AT_EPOCH":23251,"BSTAR":0.0052967226,"MEAN_MOTION_DOT":0.00392254,"MEAN_MOTION_DDOT":0},{"OBJECT_NAME":"COSMOS 1408 DEB","OBJECT_ID":"1982-092ALR","EPOCH":"2026-04-26T11:38:23.442720","MEAN_MOTION":15.65653615,"ECCENTRICITY":0.00223576,"INCLINATION":82.5645,"RA_OF_ASC_NODE":292.9498,"ARG_OF_PERICENTER":13.6838,"MEAN_ANOMALY":346.5023,"EPHEMERIS_TYPE":0,"CLASSIFICATION_TYPE":"U","NORAD_CAT_ID":50621,"ELEMENT_SET_NO":999,"REV_AT_EPOCH":24352,"BSTAR":0.00037429122,"MEAN_MOTION_DOT":0.00038299,"MEAN_MOTION_DDOT":0}]
