COSMOS 1408 DEB         
1 50032U 82092RU  26116.81962786  .00005496  00000+0  10656-3 0  9998
2 50032  82.5602 279.8787 0016932  83.4036 276.9141 15.47249185246916
COSMOS 1408 DEB         
1 50058U 82092SW  26116.51924844  .00054737  00000+0  35397-3 0  9997
2 50058  82.6062 287.0757 0010575 310.7020  49.3326 15.75785107249188
COSMOS 1408 DEB         
1 50404U 82092ADS 26116.32159512  .00392254  00000+0  52967-2 0  9993
2 50404  82.1877  73.6855 0091925  89.0528 272.1254 15.51719079232511
COSMOS 1408 DEB         
1 50621U 82092ALR 26116.48499355  .00038299  00000+0  37429-3 0  9996
2 50621  82.5645 292.9498 0022357  13.6838 346.5023 15.65653615243529
